OBJECT_NAME,OBJECT_ID,EPOCH,MEAN_MOTION,ECCENTRICITY,INCLINATION,RA_OF_ASC_NODE,ARG_OF_PERICENTER,MEAN_ANOMALY,EPHEMERIS_TYPE,CLASSIFICATION_TYPE,NORAD_CAT_ID,ELEMENT_SET_NO,REV_AT_EPOCH,BSTAR,MEAN_MOTION_DOT,MEAN_MOTION_DDOT
QZS-6 (MICHIBIKI-6),2025-023A,2026-07-24T03:57:21.608352,1.00273612,.00021048,0.0206,56.7395,59.8019,335.1892,0,U,62876,999,532,0,-.228E-5,0
ZHONGXING-10R,2025-036A,2026-07-24T06:37:09.522624,1.00274916,.0004612,0.0657,245.8016,265.0135,0.9729,0,U,63075,999,533,0,-.347E-5,0
TJS-15,2025-045A,2026-07-22T12:10:15.765024,1.00271911,.000309,0.3115,85.6557,297.6615,193.9017,0,U,63157,999,511,0,-.261E-5,0
TIANLIAN 2-04,2025-062A,2026-07-23T20:12:30.966912,1.00272677,.0031242,4.2827,273.9108,9.1868,41.6415,0,U,63361,999,497,0,-.125E-5,0
TJS-16,2025-064A,2026-07-22T12:16:26.465088,1.00271665,.0002416,1.1868,81.2424,298.6317,265.0980,0,U,63397,999,474,0,-.103E-5,0
TJS-17,2025-073A,2026-07-22T12:11:01.804992,1.00271970,.0001022,1.1528,82.3957,323.4327,241.6719,0,U,63524,999,464,0,-.67E-6,0
TIANLIAN 2-05,2025-084A,2026-07-22T21:15:56.952576,1.00274468,.00028112,4.3625,279.4265,160.3349,200.2373,0,U,63662,999,474,0,.134E-5,0
TJS-19,2025-097A,2026-07-22T12:23:19.477824,1.00274057,.0004176,3.2283,318.0264,248.7017,60.6064,0,U,63924,999,449,0,-.269E-5,0
CHINASAT 3B,2025-106A,2026-07-23T22:19:59.537280,1.00272244,.00044581,0.0340,197.2550,309.5966,297.1030,0,U,64062,999,442,0,-.4E-6,0
SXM-10,2025-122A,2026-07-23T07:18:01.292832,1.00270805,.0001676,0.0185,48.0079,322.4035,283.9488,0,U,64290,999,404,0,-.12E-6,0
COSMOS 2589,2025-131A,2026-07-22T11:47:14.216064,1.00299459,.0001317,0.0296,115.0181,302.3327,157.7754,0,U,64467,999,391,0,-.292E-5,0
CHINASAT 9C,2025-132A,2026-07-24T03:57:21.608352,1.00272314,.00036621,0.0198,101.1610,16.3000,335.9748,0,U,64470,999,452,0,-.242E-5,0
MTG-S1,2025-143A,2026-07-24T06:05:27.562272,1.00276228,.00031685,0.5801,347.1371,254.8322,151.0684,0,U,64723,999,379,0,0,0
DROR 1,2025-148A,2026-07-24T06:04:27.656832,1.00271319,.00018905,0.0152,8.3626,43.4339,337.2777,0,U,64784,999,366,0,-.29E-6,0
SHIYAN-29,2025-196A,2026-07-22T22:06:51.813792,1.00274996,.00132958,28.8598,18.0844,176.3636,173.2797,0,U,65486,999,323,0,-.281E-5,0
NUSANTARA LIMA (NUSANTARA 5),2025-205A,2026-07-24T06:37:46.963200,1.00270567,.00003709,0.0045,234.9767,288.4937,350.8221,0,U,65588,999,309,0,-.352E-5,0
TJS-20,2025-238A,2026-07-23T21:50:02.407776,1.00270000,.00040531,5.3887,299.4063,190.6400,201.4984,0,U,66142,999,270,0,.37E-6,0
CMS-03 (GSAT-7R),2025-249B,2026-07-24T02:44:38.740128,1.00270566,.00023561,0.0508,250.4410,219.8205,306.7137,0,U,66311,999,271,0,-.71E-6,0
VIASAT-3 F2,2025-261A,2026-07-24T05:43:07.202784,1.00271396,.00006573,0.0350,233.1536,343.5383,92.0879,0,U,66454,999,316,0,-.228E-5,0
SHIJIAN-28 (SJ-28),2025-277A,2026-07-24T02:59:38.558112,1.00272694,.00009936,4.4449,271.5441,59.3234,132.7396,0,U,66549,999,252,0,-.35E-5,0
TJS-22,2025-290A,2026-07-23T18:39:22.393728,1.00271616,.00029782,1.4422,287.0805,317.6713,43.0489,0,U,66990,999,239,0,0,0
TJS-23,2025-306A,2026-07-23T12:02:57.487200,1.00269282,.00044415,5.5072,297.2973,203.8819,156.2957,0,U,67226,999,225,0,.28E-6,0
FENGYUN 4C,2025-312A,2026-07-13T15:48:28.031328,1.00269440,.00006584,0.0385,175.3203,48.7481,77.5697,0,U,67246,999,204,0,-.328E-5,0
SHIJIAN-29A (SJ-29A),2025-315A,2026-07-24T02:44:38.740128,1.00273540,.00053785,3.4888,94.2252,53.7356,268.2486,0,U,67302,999,198,0,-.67E-6,0
SHIJIAN-29B (SJ-29B),2025-315C,2026-07-24T01:28:51.675744,1.00273743,.00054589,3.4876,94.2194,55.6941,247.3429,0,U,67403,999,205,0,-.67E-6,0
ELEKTRO-L 5,2026-028A,2026-07-23T22:48:55.480032,1.00271728,.00020879,0.1969,330.0326,176.7104,213.2595,0,U,67756,999,162,0,-.92E-6,0
JAM-E JAM 1,2026-028B,2026-07-24T05:20:38.783904,1.00269312,.00007368,0.1915,317.4996,241.9999,216.5379,0,U,67757,999,149,0,.161E-5,0
ECHOSTAR 25,2026-045A,2026-07-24T05:34:15.553344,1.00270872,.00015423,0.0169,71.1349,55.4556,148.9233,0,U,68126,999,136,0,-.51E-6,0
TJS-24,2026-116A,2026-07-24T08:03:23.705856,1.00272880,.00002802,0.0992,93.4139,109.1704,310.6387,0,U,69235,999,60,0,-.227E-5,0
