QZS-6 (MICHIBIKI-6)     
1 62876U 25023A   26205.16483343 -.00000228  00000+0  00000+0 0  9999
2 62876   0.0206  56.7395 0002104  59.8019 335.1892  1.00273612  5326
ZHONGXING-10R           
1 63075U 25036A   26205.27580466 -.00000347  00000+0  00000+0 0  9993
2 63075   0.0657 245.8016 0004612 265.0135   0.9729  1.00274916  5330
TJS-15                  
1 63157U 25045A   26203.50712691 -.00000261  00000+0  00000+0 0  9990
2 63157   0.3115  85.6557 0003090 297.6615 193.9017  1.00271911  5117
TIANLIAN 2-04           
1 63361U 25062A   26204.84202508 -.00000125  00000+0  00000+0 0  9994
2 63361   4.2827 273.9108 0031242   9.1868  41.6415  1.00272677  4971
TJS-16                  
1 63397U 25064A   26203.51141742 -.00000103  00000+0  00000+0 0  9996
2 63397   1.1868  81.2424 0002416 298.6317 265.0980  1.00271665  4747
TJS-17                  
1 63524U 25073A   26203.50765978 -.00000067  00000+0  00000+0 0  9999
2 63524   1.1528  82.3957 0001022 323.4327 241.6719  1.00271970  4643
TIANLIAN 2-05           
1 63662U 25084A   26203.88607584  .00000134  00000+0  00000+0 0  9997
2 63662   4.3625 279.4265 0002811 160.3349 200.2373  1.00274468  4742
TJS-19                  
1 63924U 25097A   26203.51619766 -.00000269  00000+0  00000+0 0  9997
2 63924   3.2283 318.0264 0004176 248.7017  60.6064  1.00274057  4490
CHINASAT 3B             
1 64062U 25106A   26204.93055020 -.00000040  00000+0  00000+0 0  9993
2 64062   0.0340 197.2550 0004458 309.5966 297.1030  1.00272244  4429
SXM-10                  
1 64290U 25122A   26204.30418163 -.00000012  00000+0  00000+0 0  9995
2 64290   0.0185  48.0079 0001676 322.4035 283.9488  1.00270805  4047
COSMOS 2589             
1 64467U 25131A   26203.49113676 -.00000292  00000+0  00000+0 0  9991
2 64467   0.0296 115.0181 0001317 302.3327 157.7754  1.00299459  3913
CHINASAT 9C             
1 64470U 25132A   26205.16483343 -.00000242  00000+0  00000+0 0  9998
2 64470   0.0198 101.1610 0003662  16.3000 335.9748  1.00272314  4528
MTG-S1                  
1 64723U 25143A   26205.25379123  .00000000  00000+0  00000+0 0  9992
2 64723   0.5801 347.1371 0003168 254.8322 151.0684  1.00276228  3790
DROR 1                  
1 64784U 25148A   26205.25309788 -.00000029  00000+0  00000+0 0  9996
2 64784   0.0152   8.3626 0001890  43.4339 337.2777  1.00271319  3663
SHIYAN-29               
1 65486U 25196A   26203.92143303 -.00000281  00000+0  00000+0 0  9990
2 65486  28.8598  18.0844 0013295 176.3636 173.2797  1.00274996  3230
NUSANTARA LIMA (NUSANT*)
1 65588U 25205A   26205.27623800 -.00000352  00000+0  00000+0 0  9998
2 65588   0.0045 234.9767 0000370 288.4937 350.8221  1.00270567  3093
TJS-20                  
1 66142U 25238A   26204.90975009  .00000037  00000+0  00000+0 0  9990
2 66142   5.3887 299.4063 0004053 190.6400 201.4984  1.00270000  2704
CMS-03 (GSAT-7R)        
1 66311U 25249B   26205.11433727 -.00000071  00000+0  00000+0 0  9999
2 66311   0.0508 250.4410 0002356 219.8205 306.7137  1.00270566  2715
VIASAT-3 F2             
1 66454U 25261A   26205.23827781 -.00000228  00000+0  00000+0 0  9995
2 66454   0.0350 233.1536 0000657 343.5383  92.0879  1.00271396  3169
SHIJIAN-28 (SJ-28)      
1 66549U 25277A   26205.12475183 -.00000350  00000+0  00000+0 0  9996
2 66549   4.4449 271.5441 0000993  59.3234 132.7396  1.00272694  2529
TJS-22                  
1 66990U 25290A   26204.77734252  .00000000  00000+0  00000+0 0  9997
2 66990   1.4422 287.0805 0002978 317.6713  43.0489  1.00271616  2395
TJS-23                  
1 67226U 25306A   26204.50205425  .00000028  00000+0  00000+0 0  9994
2 67226   5.5072 297.2973 0004441 203.8819 156.2957  1.00269282  2251
FENGYUN 4C              
1 67246U 25312A   26194.65865777 -.00000328  00000+0  00000+0 0  9993
2 67246   0.0385 175.3203 0000658  48.7481  77.5697  1.00269440  2048
SHIJIAN-29A (SJ-29A)    
1 67302U 25315A   26205.11433727 -.00000067  00000+0  00000+0 0  9999
2 67302   3.4888  94.2252 0005378  53.7356 268.2486  1.00273540  1983
SHIJIAN-29B (SJ-29B)    
1 67403U 25315C   26205.06170921 -.00000067  00000+0  00000+0 0  9999
2 67403   3.4876  94.2194 0005458  55.6941 247.3429  1.00273743  2056
ELEKTRO-L 5             
1 67756U 26028A   26204.95064213 -.00000092  00000+0  00000+0 0  9993
2 67756   0.1969 330.0326 0002087 176.7104 213.2595  1.00271728  1622
JAM-E JAM 1             
1 67757U 26028B   26205.22267111  .00000161  00000+0  00000+0 0  9993
2 67757   0.1915 317.4996 0000736 241.9999 216.5379  1.00269312  1499
ECHOSTAR 25             
1 68126U 26045A   26205.23212446 -.00000051  00000+0  00000+0 0  9994
2 68126   0.0169  71.1349 0001542  55.4556 148.9233  1.00270872  1365
TJS-24                  
1 69235U 26116A   26205.33569104 -.00000227  00000+0  00000+0 0  9997
2 69235   0.0992  93.4139 0000280 109.1704 310.6387  1.00272880   600
